NORAD_CAT_ID,OBJECT_NAME,OBJECT_TYPE,EPOCH,MEAN_MOTION,ECCENTRICITY,INCLINATION,RA_OF_ASC_NODE,ARG_OF_PERICENTER,MEAN_ANOMALY,BSTAR,MEAN_MOTION_DOT,MEAN_MOTION_DDOT,TLE_LINE0,TLE_LINE1,TLE_LINE2,SEMIMAJOR_AXIS,PERIOD,APOGEE,PERIGEE,DECAYED
52378.0,STARLINK-3806,PAYLOAD,2024-04-13 06:47:46,15.08841044,0.0001344,53.2179,70.9193,88.0484,272.0662,9.094e-05,1.16e-05,0.0,0 STARLINK-3806,1 52378U 22045AZ  24104.28317592  .00001160  00000-0  90940-4 0  9990,2 52378  53.2179  70.9193 0001344  88.0484 272.0662 15.08841044110942,6917.877,95.437,540.672,538.812,0.0
52378.0,STARLINK-3806,PAYLOAD,2024-04-14 06:38:33,15.08844263,0.000142,53.2185,66.454,83.3973,276.718,0.00010312,1.354e-05,0.0,0 STARLINK-3806,1 52378U 22045AZ  24105.27677465  .00001354  00000-0  10312-3 0  9997,2 52378  53.2185  66.4540 0001420  83.3973 276.7180 15.08844263111090,6917.867,95.437,540.715,538.75,0.0
52378.0,STARLINK-3806,PAYLOAD,2024-04-15 03:18:34,15.08846709,0.0001845,53.2197,62.5827,63.268,296.8501,4.2028e-05,3.81e-06,0.0,0 STARLINK-3806,1 52378U 22045AZ  24106.13789635  .00000381  00000-0  42028-4 0  9995,2 52378  53.2197  62.5827 0001845  63.2680 296.8501 15.08846709111223,6917.86,95.437,541.001,538.449,0.0
52378.0,STARLINK-3806,PAYLOAD,2024-04-15 06:29:20,15.08847358,0.0001869,53.2199,61.9874,66.3685,293.7503,7.5063e-05,9.07e-06,0.0,0 STARLINK-3806,1 52378U 22045AZ  24106.27037453  .00000907  00000-0  75063-4 0  9993,2 52378  53.2199  61.9874 0001869  66.3685 293.7503 15.08847358111246,6917.858,95.437,541.016,538.43,0.0
52378.0,STARLINK-3806,PAYLOAD,2024-04-16 06:20:07,15.08848509,0.0001568,53.2192,57.5328,91.271,268.8461,5.8151e-05,6.38e-06,0.0,0 STARLINK-3806,1 52378U 22045AZ  24107.26397343  .00000638  00000-0  58151-4 0  9990,2 52378  53.2192  57.5328 0001568  91.2710 268.8461 15.08848509111397,6917.854,95.437,540.804,538.635,0.0
52378.0,STARLINK-3806,PAYLOAD,2024-04-16 14:17:00,15.08872856,0.0001256,53.219,56.05,103.3771,256.7362,0.00024725,3.653e-05,0.0,0 STARLINK-3806,1 52378U 22045AZ  24107.59514652  .00003653  00000-0  24725-3 0  9999,2 52378  53.2190  56.0500 0001256 103.3771 256.7362 15.08872856111441,6917.78,95.435,540.514,538.776,0.0
52378.0,STARLINK-3806,PAYLOAD,2024-04-17 03:00:08,15.08831884,0.00013,53.2177,53.6718,98.9706,261.1433,-0.00017257,-3.033e-05,0.0,0 STARLINK-3806,1 52378U 22045AZ  24108.12509688 -.00003033  00000-0 -17257-3 0  9998,2 52378  53.2177  53.6718 0001300  98.9706 261.1433 15.08831884111521,6917.905,95.438,540.67,538.871,0.0
52378.0,STARLINK-3806,PAYLOAD,2024-04-17 06:10:54,15.08832734,0.0001246,53.2176,53.0768,99.4687,260.6446,-0.0001598,-2.83e-05,0.0,0 STARLINK-3806,1 52378U 22045AZ  24108.25757586 -.00002830  00000-0 -15980-3 0  9999,2 52378  53.2176  53.0768 0001246  99.4687 260.6446 15.08832734111547,6917.903,95.438,540.63,538.906,0.0
52378.0,STARLINK-3806,PAYLOAD,2024-04-18 01:15:33,15.08811949,0.0001657,53.2181,49.5059,113.9533,246.1633,-0.00034656,-5.795e-05,0.0,0 STARLINK-3806,1 52378U 22045AZ  24109.05246773 -.00005795  00000-0 -34656-3 0  9993,2 52378  53.2181  49.5059 0001657 113.9533 246.1633 15.08811949111669,6917.966,95.439,540.977,538.685,0.0
52378.0,STARLINK-3806,PAYLOAD,2024-04-19 02:41:42,15.08841039,0.0001405,53.2177,44.7468,95.9764,264.1388,0.00065271,0.00010115,0.0,0 STARLINK-3806,1 52378U 22045AZ  24110.11230133  .00010115  00000-0  65271-3 0  9992,2 52378  53.2177  44.7468 0001405  95.9764 264.1388 15.08841039111829,6917.877,95.437,540.714,538.77,0.0
52378.0,STARLINK-3806,PAYLOAD,2024-04-20 00:57:07,15.08832526,0.0001397,53.2177,40.5904,116.0746,244.039,0.00011171,1.49e-05,0.0,0 STARLINK-3806,1 52378U 22045AZ  24111.03967390  .00001490  00000-0  11171-3 0  9992,2 52378  53.2177  40.5904 0001397 116.0746 244.0390 15.08832526111969,6917.903,95.438,540.735,538.802,0.0
52378.0,STARLINK-3806,PAYLOAD,2024-04-21 03:58:40,15.08851901,0.0001601,53.2186,35.5345,88.874,271.2436,9.9052e-05,1.289e-05,0.0,0 STARLINK-3806,1 52378U 22045AZ  24112.16575008  .00001289  00000-0  99052-4 0  9999,2 52378  53.2186  35.5345 0001601  88.8740 271.2436 15.08851901112131,6917.844,95.437,540.817,538.601,0.0
52378.0,STARLINK-3806,PAYLOAD,2024-04-21 05:34:03,15.08852383,0.0001649,53.2187,35.2344,92.3154,267.8027,0.00014327,1.994e-05,0.0,0 STARLINK-3806,1 52378U 22045AZ  24112.23198944  .00001994  00000-0  14327-3 0  9991,2 52378  53.2187  35.2344 0001649  92.3154 267.8027 15.08852383112142,6917.843,95.437,540.848,538.567,0.0
52378.0,STARLINK-3806,PAYLOAD,2024-04-22 03:49:26,15.08869963,0.0001555,53.2187,31.0732,101.6994,258.4172,0.00055632,8.584e-05,0.0,0 STARLINK-3806,1 52378U 22045AZ  24113.15933985  .00008584  00000-0  55632-3 0  9991,2 52378  53.2187  31.0732 0001555 101.6994 258.4172 15.08869963112283,6917.789,95.436,540.73,538.578,0.0
52378.0,STARLINK-3806,PAYLOAD,2024-04-22 18:07:56,15.08829589,9.17e-05,53.2197,28.3952,132.1026,228.0044,-0.00028586,-4.833e-05,0.0,0 STARLINK-3806,1 52378U 22045AZ  24113.75551828 -.00004833  00000-0 -28586-3 0  9992,2 52378  53.2197  28.3952 0000917 132.1026 228.0044 15.08829589112374,6917.912,95.438,540.412,539.143,0.0
52378.0,STARLINK-3806,PAYLOAD,2024-04-22 22:54:05,15.08850611,0.0002385,53.2196,27.5032,130.1799,229.9402,8.1752e-06,-1.58e-06,0.0,0 STARLINK-3806,1 52378U 22045AZ  24113.95422737 -.00000158  00000-0  81752-5 0  9991,2 52378  53.2196  27.5032 0002385 130.1799 229.9402 15.08850611112401,6917.848,95.437,541.363,538.063,0.0
52378.0,STARLINK-3806,PAYLOAD,2024-04-23 00:29:28,15.08843766,0.0002199,53.2189,27.208,122.9005,237.2199,-9.489e-05,-1.798e-05,0.0,0 STARLINK-3806,1 52378U 22045AZ  24114.02047048 -.00001798  00000-0 -94890-4 0  9996,2 52378  53.2189  27.2080 0002199 122.9005 237.2199 15.08843766112414,6917.869,95.437,541.255,538.213,0.0
52378.0,STARLINK-3806,PAYLOAD,2024-04-23 21:09:29,15.0884718,0.0002291,53.2179,23.3479,139.8566,220.2596,-0.00016999,-2.993e-05,0.0,0 STARLINK-3806,1 52378U 22045AZ  24114.88158910 -.00002993  00000-0 -16999-3 0  9992,2 52378  53.2179  23.3479 0002291 139.8566 220.2596 15.08847180112545,6917.858,95.437,541.308,538.139,0.0
52378.0,STARLINK-3806,PAYLOAD,2024-04-24 00:20:15,15.08860386,0.0001284,53.2189,22.7452,97.7822,262.3316,7.7413e-05,9.45e-06,0.0,0 STARLINK-3806,1 52378U 22045AZ  24115.01406322  .00000945  00000-0  77413-4 0  9993,2 52378  53.2189  22.7452 0001284  97.7822 262.3316 15.08860386112560,6917.818,95.436,540.571,538.795,0.0
52378.0,STARLINK-3806,PAYLOAD,2024-04-24 21:00:16,15.08837988,0.0002112,53.2196,18.8823,155.2012,204.9082,3.1411e-05,2.12e-06,0.0,0 STARLINK-3806,1 52378U 22045AZ  24115.87519241  .00000212  00000-0  31411-4 0  9997,2 52378  53.2196  18.8823 0002112 155.2012 204.9082 15.08837988112696,6917.887,95.438,541.213,538.29,0.0
52378.0,STARLINK-3806,PAYLOAD,2024-04-24 22:35:36,15.08921887,0.0001447,53.2193,18.5848,136.8168,223.2938,0.0012916,0.00020374,0.0,0 STARLINK-3806,1 52378U 22045AZ  24115.94139307  .00020374  00000-0  12916-2 0  9994,2 52378  53.2193  18.5848 0001447 136.8168 223.2938 15.08921887112702,6917.63,95.432,540.496,538.494,0.0
52378.0,STARLINK-3806,PAYLOAD,2024-04-25 08:07:58,15.08850091,0.0001561,53.2189,16.7931,73.6545,286.4619,0.00021183,3.086e-05,0.0,0 STARLINK-3806,1 52378U 22045AZ  24116.33887011  .00003086  00000-0  21183-3 0  9998,2 52378  53.2189  16.7931 0001561  73.6545 286.4619 15.08850091112765,6917.85,95.437,540.794,538.635,0.0
52378.0,STARLINK-3806,PAYLOAD,2024-04-25 22:26:27,15.08844735,0.0001148,53.2182,14.1271,87.8839,272.2284,-1.6862e-05,-5.56e-06,0.0,0 STARLINK-3806,1 52378U 22045AZ  24116.93503736 -.00000556  00000-0 -16862-4 0  9993,2 52378  53.2182  14.1271 0001148  87.8839 272.2284 15.08844735112850,6917.866,95.437,540.525,538.937,0.0
52378.0,STARLINK-3806,PAYLOAD,2024-04-26 09:34:07,15.0886479,0.0001933,53.219,12.0485,145.3036,214.8083,0.00015813,2.231e-05,0.0,0 STARLINK-3806,1 52378U 22045AZ  24117.39869936  .00002231  00000-0  15813-3 0  9995,2 52378  53.2190  12.0485 0001933 145.3036 214.8083 15.08864790112924,6917.805,95.436,541.007,538.332,0.0
52378.0,STARLINK-3806,PAYLOAD,2024-04-26 22:17:13,15.08829998,0.0001073,53.2179,9.6672,88.0771,272.0344,-0.00032359,-5.433e-05,0.0,0 STARLINK-3806,1 52378U 22045AZ  24117.92863115 -.00005433  00000-0 -32359-3 0  9990,2 52378  53.2179   9.6672 0001073  88.0771 272.0344 15.08829998113002,6917.911,95.438,540.518,539.034,0.0
52378.0,STARLINK-3806,PAYLOAD,2024-04-27 03:03:23,15.08829593,0.0001068,53.2179,8.7715,85.2377,274.8738,-0.00029764,-5.02e-05,0.0,0 STARLINK-3806,1 52378U 22045AZ  24118.12735160 -.00005020  00000-0 -29764-3 0  9999,2 52378  53.2179   8.7715 0001068  85.2377 274.8738 15.08829593113036,6917.912,95.438,540.516,539.038,0.0
52378.0,STARLINK-3806,PAYLOAD,2024-04-27 09:24:55,15.08827387,0.0001076,53.2179,7.5819,82.7556,277.3559,-0.00029109,-4.916e-05,0.0,0 STARLINK-3806,1 52378U 22045AZ  24118.39231395 -.00004916  00000-0 -29109-3 0  9995,2 52378  53.2179   7.5819 0001076  82.7556 277.3559 15.08827387113070,6917.919,95.438,540.528,539.04,0.0
52378.0,STARLINK-3806,PAYLOAD,2024-04-27 22:08:02,15.08819588,0.0001427,53.2191,5.204,116.5318,243.582,-6.5631e-05,-1.332e-05,0.0,0 STARLINK-3806,1 52378U 22045AZ  24118.92225278 -.00001332  00000-0 -65631-4 0  9997,2 52378  53.2191   5.2040 0001427 116.5318 243.5820 15.08819588113156,6917.943,95.439,540.795,538.821,0.0
52378.0,STARLINK-3806,PAYLOAD,2024-04-28 02:54:10,15.08835259,0.0001221,53.2184,4.3137,108.6334,251.479,-0.00017368,-3.051e-05,0.0,0 STARLINK-3806,1 52378U 22045AZ  24119.12095666 -.00003051  00000-0 -17368-3 0  9999,2 52378  53.2184   4.3137 0001221 108.6334 251.4790 15.08835259113187,6917.895,95.438,540.605,538.915,0.0
52378.0,STARLINK-3806,PAYLOAD,2024-04-28 09:15:43,15.08843124,0.0001019,53.2187,3.1233,85.6743,274.4366,-9.6496e-05,-1.823e-05,0.0,0 STARLINK-3806,1 52378U 22045AZ  24119.38591932 -.00001823  00000-0 -96496-4 0  9999,2 52378  53.2187   3.1233 0001019  85.6743 274.4366 15.08843124113226,6917.871,95.437,540.441,539.031,0.0
